     2.100          NAVIGATION                              RINEX VERSION / TYPE
fic2rin                                 11/23/2014 00:14:11 PGM / RUN BY / DATE
                                                            END OF HEADER
23 14 11 22 10  0  0.0 -.691367313266D-04 -.272848410532D-11  .000000000000D+00
     .103000000000D+03  .126406250000D+03  .438768276460D-08  .101975773186D+01
     .673532485962D-05  .967177841812D-02  .107139348984D-04  .515371490288D+04
     .554400000000D+06 -.111758708954D-06 -.273465144119D+01  .147148966789D-06
     .950530515834D+00  .166906250000D+03 -.271820613684D+01 -.804212070089D-08
     .389301930274D-10  .100000000000D+01  .181900000000D+04  .000000000000D+00
     .240000000000D+01  .000000000000D+00 -.200234353542D-07  .103000000000D+03
     .547206000000D+06  .400000000000D+01
24 14 11 22 10  0  0.0 -.388575717807D-04 -.568434188608D-12  .000000000000D+00
     .116000000000D+03  .320937500000D+02  .502485216240D-08  .424207491750D+00
     .168010592461D-05  .255801132880D-02 -.447034835815D-07  .515369700813D+04
     .554400000000D+06  .838190317154D-07 -.170751887304D+01  .000000000000D+00
     .955047687947D+00  .377781250000D+03  .208077782886D+00 -.866607526253D-08
     .140720147273D-09  .100000000000D+01  .181900000000D+04  .000000000000D+00
     .340000000000D+01  .000000000000D+00  .279396772385D-08  .116000000000D+03
     .547206000000D+06  .400000000000D+01
25 14 11 22 10  0  0.0  .130883418024D-04 -.181898940355D-11  .000000000000D+00
     .350000000000D+02 -.137625000000D+03  .416374486526D-08 -.165624693859D+01
    -.716745853424D-05  .380045524798D-02  .731833279133D-05  .515376558304D+04
     .554400000000D+06  .558793544769D-07 -.648198209932D+00 -.372529029846D-08
     .977504946307D+00  .247468750000D+03  .696257775234D+00 -.793711632704D-08
    -.256796410887D-09  .100000000000D+01  .181900000000D+04  .000000000000D+00
     .240000000000D+01  .000000000000D+00  .512227416039D-08  .350000000000D+02
     .547206000000D+06  .400000000000D+01
26 14 11 22 10  0  0.0 -.131548848003D-03 -.130739863380D-10  .000000000000D+00
     .640000000000D+02  .114625000000D+03  .401981029838D-08  .102025552192D+01
     .599399209023D-05  .213271318935D-01  .959262251854D-05  .515369526863D+04
     .554400000000D+06 -.339001417160D-06 -.264240303968D+01 -.428408384323D-07
     .973603478379D+00  .205812500000D+03  .129735851379D+01 -.818891252965D-08
     .104290058385D-09  .100000000000D+01  .181900000000D+04  .000000000000D+00
     .240000000000D+01  .000000000000D+00 -.651925802231D-08  .640000000000D+02
     .547206000000D+06  .400000000000D+01
27 14 11 22 10  0  0.0  .317064113915D-04  .284217094304D-11  .000000000000D+00
     .820000000000D+02 -.252500000000D+02  .425624871841D-08  .222682291127D+01
    -.121630728245D-05  .158871361054D-02  .119730830193D-04  .515368795776D+04
     .554400000000D+06 -.502914190292D-07  .396998747151D+00  .689178705215D-07
     .965588552525D+00  .149906250000D+03  .261736585214D+00 -.772817905253D-08
     .568952270574D-09  .100000000000D+01  .181900000000D+04  .000000000000D+00
     .240000000000D+01  .000000000000D+00  .139698386192D-08  .820000000000D+02
     .547206000000D+06  .400000000000D+01
28 14 11 22 10  0  0.0  .400136690587D-03  .272848410532D-11  .000000000000D+00
     .890000000000D+02 -.152062500000D+03  .377551440819D-08  .309555786785D+01
    -.785663723946D-05  .196144616930D-01  .727176666260D-05  .515368890381D+04
     .554400000000D+06  .303611159325D-06 -.579537299735D+00 -.128522515297D-06
     .988080391343D+00  .251125000000D+03 -.169958230400D+01 -.746852537977D-08
    -.266082511976D-09  .100000000000D+01  .181900000000D+04  .000000000000D+00
     .340000000000D+01  .000000000000D+00 -.111758708954D-07  .890000000000D+02
     .547206000000D+06  .400000000000D+01
29 14 11 22 10  0  0.0  .574846286327D-03  .250111042988D-11  .000000000000D+00
     .109000000000D+03 -.812500000000D+00  .415017287136D-08 -.121523749184D+01
    -.353902578354D-07  .114406377543D-02  .117179006338D-04  .515360295296D+04
     .554400000000D+06 -.409781932831D-07  .452821329666D+00 -.298023223877D-07
     .971517379141D+00  .156375000000D+03 -.869893584777D+00 -.774675125471D-08
     .561451958156D-09  .100000000000D+01  .181900000000D+04  .000000000000D+00
     .340000000000D+01  .000000000000D+00 -.977888703346D-08  .109000000000D+03
     .547206000000D+06  .400000000000D+01
30 14 11 22 10  0  0.0 -.816704705358D-04 -.204636307899D-11  .000000000000D+00
     .230000000000D+02  .286875000000D+02  .490663295239D-08 -.694806648274D+00
     .145472586155D-05  .100628135260D-02 -.596046447754D-07  .515363640976D+04
     .554400000000D+06  .186264514923D-07 -.161782066251D+01  .391155481339D-07
     .957405326723D+00  .376062500000D+03 -.307289845030D+01 -.861000149827D-08
     .157506560780D-09  .100000000000D+01  .181900000000D+04  .000000000000D+00
     .240000000000D+01  .000000000000D+00  .325962901115D-08  .230000000000D+02
     .547206000000D+06  .400000000000D+01
31 14 11 22 10  0  0.0  .328634399921D-03 -.568434188608D-12  .000000000000D+00
     .880000000000D+02  .285625000000D+02  .456733310490D-08 -.530427090075D+00
     .131689012051D-05  .823221344035D-02  .327825546265D-06  .515366931915D+04
     .554400000000D+06 -.707805156708D-07 -.166286831940D+01 -.171363353729D-06
     .976655987151D+00  .378125000000D+03 -.613005180298D+00 -.854571310611D-08
     .202865593023D-09  .100000000000D+01  .181900000000D+04  .000000000000D+00
     .240000000000D+01  .000000000000D+00 -.135041773319D-07  .880000000000D+02
     .547206000000D+06  .400000000000D+01
32 14 11 22 10  0  0.0 -.288078561425D-03  .886757334229D-11  .000000000000D+00
     .150000000000D+02 -.170625000000D+02  .490306137504D-08 -.233050135359D-01
    -.972300767899D-06  .114260347327D-01  .100731849670D-04  .515361286354D+04
     .554400000000D+06  .175088644028D-06  .257807672795D+01 -.484287738800D-07
     .947393772239D+00  .178312500000D+03 -.295623398701D-01 -.825605818368D-08
    -.689671584733D-09  .100000000000D+01  .181900000000D+04  .000000000000D+00
     .240000000000D+01  .000000000000D+00 -.325962901115D-08  .150000000000D+02
     .547206000000D+06  .400000000000D+01
24 14 11 22  9 59 44.0 -.388626940548D-04 -.682121026330D-12  .000000000000D+00
     .190000000000D+02  .320937500000D+02  .502485216240D-08  .421870605930D+00
     .168010592461D-05  .255801109597D-02 -.447034835815D-07  .515369700432D+04
     .554384000000D+06  .838190317154D-07 -.170751872821D+01  .000000000000D+00
     .955047704039D+00  .377781250000D+03  .208081034953D+00 -.866607526253D-08
     .141077305007D-09  .100000000000D+01  .181900000000D+04  .000000000000D+00
     .240000000000D+01  .000000000000D+00  .279396772385D-08  .190000000000D+02
     .548286000000D+06  .400000000000D+01
 2 14 11 22  9 59 44.0  .531555619091D-03  .227373675443D-11  .000000000000D+00
     .400000000000D+01  .229062500000D+02  .560451916500D-08  .742217498647D+00
     .130385160446D-05  .139390391996D-01  .469014048576D-05  .515370673561D+04
     .554384000000D+06 -.968575477600D-07  .141952462723D+01  .162050127983D-06
     .939552870731D+00  .280281250000D+03 -.236778214580D+01 -.878322299935D-08
    -.142863093678D-11  .100000000000D+01  .181900000000D+04  .000000000000D+00
     .240000000000D+01  .000000000000D+00 -.204890966415D-07  .400000000000D+01
     .548346000000D+06  .400000000000D+01
 8 14 11 22  9 59 44.0  .163940712810D-04  .113686837722D-12  .000000000000D+00
     .590000000000D+02  .170312500000D+02  .423267630796D-08  .273252800682D+00
     .933185219765D-06  .147430147044D-01  .765547156334D-06  .515218355751D+04
     .554384000000D+06  .745058059692D-07 -.156636136190D+01  .229105353355D-06
     .995198811739D+00  .383906250000D+03 -.268600879331D+01 -.845428072616D-08
     .714315468392D-10  .100000000000D+01  .181900000000D+04  .000000000000D+00
     .240000000000D+01  .630000000000D+02 -.465661287308D-08  .590000000000D+02
     .550506000000D+06  .400000000000D+01
29 14 11 22  9 59 44.0  .574845355004D-03  .250111042988D-11  .000000000000D+00
     .000000000000D+00 -.812500000000D+00  .415053002909D-08 -.121756861523D+01
    -.353902578354D-07  .114405783825D-02  .117179006338D-04  .515360297203D+04
     .554384000000D+06 -.409781932831D-07  .452821477421D+00 -.298023223877D-07
     .971517344031D+00  .156375000000D+03 -.869896400894D+00 -.774710841245D-08
     .561451958156D-09  .100000000000D+01  .181900000000D+04  .000000000000D+00
     .240000000000D+01  .000000000000D+00 -.977888703346D-08  .000000000000D+00
     .551076000000D+06  .400000000000D+01
12 14 11 22  9 59 44.0  .248085707426D-03  .284217094304D-11  .000000000000D+00
     .100000000000D+01 -.129031250000D+03  .395730769489D-08 -.901670308633D+00
    -.668689608574D-05  .499384826981D-02  .794604420662D-05  .515378104782D+04
     .554384000000D+06  .968575477600D-07 -.603730853139D+00  .353902578354D-07
     .988919790330D+00  .241937500000D+03  .502863366941D+00 -.782175437889D-08
    -.250724729406D-09  .100000000000D+01  .181900000000D+04  .000000000000D+00
     .240000000000D+01  .000000000000D+00 -.121071934700D-07  .100000000000D+01
     .551916000000D+06  .400000000000D+01
19 14 11 22  9 59 44.0 -.489219557494D-03 -.170530256582D-11  .000000000000D+00
     .100000000000D+01 -.146250000000D+02  .431589406003D-08  .146418312305D+01
    -.501051545143D-06  .106853805482D-01  .118054449558D-04  .515367369080D+04
     .554384000000D+06 -.447034835815D-07  .493819750740D+00  .234693288803D-06
     .967784114607D+00  .156812500000D+03  .512134538585D+00 -.786997067301D-08
     .483948729836D-09  .100000000000D+01  .181900000000D+04  .000000000000D+00
     .240000000000D+01  .000000000000D+00 -.149011611938D-07  .100000000000D+01
     .554346000000D+06  .400000000000D+01
